ONEWEB-0056             
1 45159U 20008AE  23059.52423742  .00000199  00000+0  53343-3 0  9991
2 45159  87.8750 275.6350 0001653  82.5185 277.6130 13.10371314150414
ONEWEB-0056             
1 45159U 20008AE  23059.82966881  .00000264  00000+0  72139-3 0  9997
2 45159  87.8750 275.5744 0001630  80.4950 279.6362 13.10370910151211
ONEWEB-0056             
1 45159U 20008AE  23060.59324567  .00000460  00000+0  12825-2 0  9995
2 45159  87.8750 275.4222 0001672  79.8840 280.2476 13.10371700150555
ONEWEB-0056             
1 45159U 20008AE  23061.12774970  .00000533  00000+0  14892-2 0  9999
2 45159  87.8751 275.3155 0001657  79.3223 280.8091 13.10371794151387
ONEWEB-0056             
1 45159U 20008AE  23061.81496741  .00000674  00000+0  18941-2 0  9997
2 45159  87.8752 275.1781 0001647  79.1631 280.9682 13.10373179150713
ONEWEB-0056             
1 45159U 20008AE  23062.12039856  .00000655  00000+0  18393-2 0  9992
2 45159  87.8752 275.1170 0001638  79.7969 280.3343 13.10372508150752
ONEWEB-0056             
1 45159U 20008AE  23062.80761596  .00000720  00000+0  20247-2 0  9994
2 45159  87.8753 274.9798 0001622  78.8892 281.2417 13.10373558151607
ONEWEB-0056             
1 45159U 20008AE  23062.88397354  .00000712  00000+0  20035-2 0  9995
2 45159  87.8753 274.9646 0001622  78.5889 281.5420 13.10373587150857
